NORAD_CAT_ID,OBJECT_NAME,OBJECT_TYPE,EPOCH,MEAN_MOTION,ECCENTRICITY,INCLINATION,RA_OF_ASC_NODE,ARG_OF_PERICENTER,MEAN_ANOMALY,BSTAR,MEAN_MOTION_DOT,MEAN_MOTION_DDOT,TLE_LINE0,TLE_LINE1,TLE_LINE2,SEMIMAJOR_AXIS,PERIOD,APOGEE,PERIGEE,DECAYED
55775.0,STARLINK-5809,PAYLOAD,2023-10-24 14:28:50,14.98334826,0.0002738,70.0004,250.6167,272.0792,88.0053,-0.00012542,-1.589e-05,0.0,0 STARLINK-5809,1 55775U 23028AL  23297.60335828 -.00001589  00000-0 -12542-3 0  9994,2 55775  70.0004 250.6167 0002738 272.0792  88.0053 14.98334826 36650,6950.178,96.107,573.946,570.14,0.0
55775.0,STARLINK-5809,PAYLOAD,2023-10-25 06:30:10,14.98329852,0.0002494,70.0006,248.933,263.6275,96.46,0.00018424,2.106e-05,0.0,0 STARLINK-5809,1 55775U 23028AL  23298.27095402  .00002106  00000-0  18424-3 0  9998,2 55775  70.0006 248.9330 0002494 263.6275  96.4600 14.98329852 36750,6950.193,96.107,573.792,570.325,0.0
55775.0,STARLINK-5809,PAYLOAD,2023-10-25 22:31:31,14.98322545,0.0002877,70.0004,247.2504,269.1726,90.9103,7.9302e-05,8.53e-06,0.0,0 STARLINK-5809,1 55775U 23028AL  23298.93855973  .00000853  00000-0  79302-4 0  9998,2 55775  70.0004 247.2504 0002877 269.1726  90.9103 14.98322545 36850,6950.216,96.107,574.081,570.081,0.0
55775.0,STARLINK-5809,PAYLOAD,2023-10-26 01:43:47,14.98325339,0.000283,70.0001,246.9138,267.6546,92.4289,2.2914e-05,1.8e-06,0.0,0 STARLINK-5809,1 55775U 23028AL  23299.07208016  .00000180  00000-0  22914-4 0  9994,2 55775  70.0001 246.9138 0002830 267.6546  92.4289 14.98325339 36876,6950.207,96.107,574.039,570.105,0.0
55775.0,STARLINK-5809,PAYLOAD,2023-10-26 06:32:11,14.98325902,0.0002704,70.001,246.4088,291.7895,68.2976,0.00015335,1.737e-05,0.0,0 STARLINK-5809,1 55775U 23028AL  23299.27235965  .00001737  00000-0  15335-3 0  9996,2 55775  70.0010 246.4088 0002704 291.7895  68.2976 14.98325902 36904,6950.206,96.107,573.95,570.191,0.0
55775.0,STARLINK-5809,PAYLOAD,2023-10-26 20:57:24,14.98333551,0.0002853,70.0008,244.8938,277.9638,82.1197,2.2323e-05,1.73e-06,0.0,0 STARLINK-5809,1 55775U 23028AL  23299.87319549  .00000173  00000-0  22323-4 0  9992,2 55775  70.0008 244.8938 0002853 277.9638  82.1197 14.98333551 36991,6950.182,96.107,574.03,570.064,0.0
55775.0,STARLINK-5809,PAYLOAD,2023-10-27 04:58:03,14.98344628,0.0002929,70.0001,244.053,269.8085,90.2739,9.8429e-05,1.082e-05,0.0,0 STARLINK-5809,1 55775U 23028AL  23300.20698441  .00001082  00000-0  98429-4 0  9993,2 55775  70.0001 244.0530 0002929 269.8085  90.2739 14.98344628 37040,6950.148,96.106,574.048,569.977,0.0
55775.0,STARLINK-5809,PAYLOAD,2023-10-27 06:34:11,14.9834444,0.0002874,70.0003,243.8848,268.9805,91.1024,9.459e-05,1.036e-05,0.0,0 STARLINK-5809,1 55775U 23028AL  23300.27374396  .00001036  00000-0  94590-4 0  9994,2 55775  70.0003 243.8848 0002874 268.9805  91.1024 14.98344440 37050,6950.148,96.106,574.011,570.016,0.0
55775.0,STARLINK-5809,PAYLOAD,2023-10-27 19:23:17,14.9832669,0.0002329,70.0009,242.5394,267.7259,92.3634,6.9594e-06,-1e-07,0.0,0 STARLINK-5809,1 55775U 23028AL  23300.80783721 -.00000010  00000-0  69594-5 0  9998,2 55775  70.0009 242.5394 0002329 267.7259  92.3634 14.98326690 37139,6950.203,96.107,573.687,570.449,0.0
55775.0,STARLINK-5809,PAYLOAD,2023-10-27 22:35:33,14.98322217,0.0003309,70.0003,242.2006,282.8038,77.2751,-4.4504e-05,-6.24e-06,0.0,0 STARLINK-5809,1 55775U 23028AL  23300.94136187 -.00000624  00000-0 -44504-4 0  9996,2 55775  70.0003 242.2006 0003309 282.8038  77.2751 14.98322217 37157,6950.217,96.107,574.382,569.782,0.0
55775.0,STARLINK-5809,PAYLOAD,2023-10-28 00:11:41,14.98322352,0.00033,69.9999,242.0322,282.7456,77.3334,-4.7657e-05,-6.62e-06,0.0,0 STARLINK-5809,1 55775U 23028AL  23301.00812211 -.00000662  00000-0 -47657-4 0  9997,2 55775  69.9999 242.0322 0003300 282.7456  77.3334 14.98322352 37160,6950.217,96.107,574.375,569.788,0.0
55775.0,STARLINK-5809,PAYLOAD,2023-10-28 13:00:45,14.98329595,0.0002827,70.0003,240.686,277.0097,83.074,-5.8152e-05,-7.87e-06,0.0,0 STARLINK-5809,1 55775U 23028AL  23301.54219900 -.00000787  00000-0 -58152-4 0  9992,2 55775  70.0003 240.6860 0002827 277.0097  83.0740 14.98329595 37241,6950.194,96.107,574.024,570.094,0.0
55775.0,STARLINK-5809,PAYLOAD,2023-10-28 22:37:33,14.98352312,0.0002677,69.9999,239.6756,267.9413,92.1439,-0.00038038,-4.631e-05,0.0,0 STARLINK-5809,1 55775U 23028AL  23301.94275448 -.00004631  00000-0 -38038-3 0  9997,2 55775  69.9999 239.6756 0002677 267.9413  92.1439 14.98352312 37303,6950.124,96.106,573.849,570.128,0.0
55775.0,STARLINK-5809,PAYLOAD,2023-10-29 05:02:05,14.98341129,0.0002589,70.0005,239.0031,263.248,96.8385,5.8073e-05,6e-06,0.0,0 STARLINK-5809,1 55775U 23028AL  23302.20978653  .00000600  00000-0  58073-4 0  9997,2 55775  70.0005 239.0031 0002589 263.2480  96.8385 14.98341129 37348,6950.158,96.106,573.823,570.224,0.0
55775.0,STARLINK-5809,PAYLOAD,2023-10-29 06:38:13,14.98359416,0.0002436,70.0005,238.8345,263.96,96.1282,-0.00021332,-2.639e-05,0.0,0 STARLINK-5809,1 55775U 23028AL  23302.27654092 -.00002639  00000-0 -21332-3 0  9995,2 55775  70.0005 238.8345 0002436 263.9600  96.1282 14.98359416 37353,6950.102,96.105,573.66,570.274,0.0
55775.0,STARLINK-5809,PAYLOAD,2023-10-29 19:27:19,14.98321702,0.0002031,70.0025,237.4894,246.4593,113.6353,7.8108e-05,8.39e-06,0.0,0 STARLINK-5809,1 55775U 23028AL  23302.81063808  .00000839  00000-0  78108-4 0  9996,2 55775  70.0025 237.4894 0002031 246.4593 113.6353 14.98321702 37437,6950.219,96.108,573.495,570.672,0.0
55775.0,STARLINK-5809,PAYLOAD,2023-10-29 22:39:35,14.98320601,0.0002542,70.0002,237.1507,259.1676,100.9197,-5.2727e-06,-1.56e-06,0.0,0 STARLINK-5809,1 55775U 23028AL  23302.94416137 -.00000156  00000-0 -52727-5 0  9991,2 55775  70.0002 237.1507 0002542 259.1676 100.9197 14.98320601 37454,6950.222,96.108,573.854,570.32,0.0
55775.0,STARLINK-5809,PAYLOAD,2023-10-30 05:04:07,14.9831919,0.0002954,70.0005,236.4787,265.2431,94.839,3.519e-05,3.27e-06,0.0,0 STARLINK-5809,1 55775U 23028AL  23303.21120268  .00000327  00000-0  35190-4 0  9991,2 55775  70.0005 236.4787 0002954 265.2431  94.8390 14.98319190 37494,6950.226,96.108,574.144,570.038,0.0
55775.0,STARLINK-5809,PAYLOAD,2023-10-30 21:05:28,14.9832551,0.0002987,70.0004,234.7934,271.9753,88.1064,-1.0367e-05,-2.17e-06,0.0,0 STARLINK-5809,1 55775U 23028AL  23303.87880118 -.00000217  00000-0 -10367-4 0  9999,2 55775  70.0004 234.7934 0002987 271.9753  88.1064 14.98325510 37593,6950.207,96.107,574.148,569.996,0.0
55775.0,STARLINK-5809,PAYLOAD,2023-10-31 05:06:08,14.98331253,0.0002849,70.0006,233.9534,268.3038,91.7794,5.4201e-06,-2.8e-07,0.0,0 STARLINK-5809,1 55775U 23028AL  23304.21259774 -.00000028  00000-0  54201-5 0  9991,2 55775  70.0006 233.9534 0002849 268.3038  91.7794 14.98331253 37642,6950.189,96.107,574.034,570.074,0.0
55775.0,STARLINK-5809,PAYLOAD,2023-10-31 13:06:48,14.98333754,0.0002717,70.0016,233.1104,271.7953,88.2895,-6.7375e-05,-8.97e-06,0.0,0 STARLINK-5809,1 55775U 23028AL  23304.54639767 -.00000897  00000-0 -67375-4 0  9991,2 55775  70.0016 233.1104 0002717 271.7953  88.2895 14.98333754 37692,6950.181,96.107,573.935,570.158,0.0
55775.0,STARLINK-5809,PAYLOAD,2023-10-31 22:43:37,14.98327716,0.0003007,70.0002,232.1007,266.3484,93.7331,9.1798e-05,1.002e-05,0.0,0 STARLINK-5809,1 55775U 23028AL  23304.94695724  .00001002  00000-0  91798-4 0  9993,2 55775  70.0002 232.1007 0003007 266.3484  93.7331 14.98327716 37754,6950.2,96.107,574.155,569.975,0.0
55775.0,STARLINK-5809,PAYLOAD,2023-11-01 05:08:08,14.98334037,0.0003039,70.0003,231.4287,268.6587,91.4224,0.00015501,1.757e-05,0.0,0 STARLINK-5809,1 55775U 23028AL  23305.21399154  .00001757  00000-0  15501-3 0  9996,2 55775  70.0003 231.4287 0003039 268.6587  91.4224 14.98334037 37795,6950.18,96.107,574.158,569.933,0.0
55775.0,STARLINK-5809,PAYLOAD,2023-11-01 13:08:49,14.98332228,0.0002613,70.001,230.5867,272.5584,87.5276,6.3244e-05,6.62e-06,0.0,0 STARLINK-5809,1 55775U 23028AL  23305.54779569  .00000662  00000-0  63244-4 0  9996,2 55775  70.0010 230.5867 0002613 272.5584  87.5276 14.98332228 37844,6950.186,96.107,573.867,570.235,0.0
55775.0,STARLINK-5809,PAYLOAD,2023-11-01 21:09:29,14.98328839,0.0002922,70.0011,229.7453,270.8018,89.2806,5.0749e-05,5.13e-06,0.0,0 STARLINK-5809,1 55775U 23028AL  23305.88159678  .00000513  00000-0  50749-4 0  9997,2 55775  70.0011 229.7453 0002922 270.8018  89.2806 14.98328839 37898,6950.196,96.107,574.092,570.031,0.0
55775.0,STARLINK-5809,PAYLOAD,2023-11-01 22:45:37,14.9832919,0.0002923,70.001,229.577,270.7795,89.3029,5.4151e-05,5.53e-06,0.0,0 STARLINK-5809,1 55775U 23028AL  23305.94835644  .00000553  00000-0  54151-4 0  9993,2 55775  70.0010 229.5770 0002923 270.7795  89.3029 14.98329190 37900,6950.195,96.107,574.092,570.029,0.0
55775.0,STARLINK-5809,PAYLOAD,2023-11-02 05:10:09,14.9833823,0.0002644,70.0008,228.904,265.4945,94.5912,0.00010867,1.204e-05,0.0,0 STARLINK-5809,1 55775U 23028AL  23306.21538856  .00001204  00000-0  10867-3 0  9998,2 55775  70.0008 228.9040 0002644 265.4945  94.5912 14.98338230 37946,6950.167,96.106,573.87,570.195,0.0
55775.0,STARLINK-5809,PAYLOAD,2023-11-02 21:11:30,14.98330884,0.00025,70.0026,227.2229,258.2582,101.8296,-1.8846e-05,-3.18e-06,0.0,0 STARLINK-5809,1 55775U 23028AL  23306.88299444 -.00000318  00000-0 -18846-4 0  9991,2 55775  70.0026 227.2229 0002500 258.2582 101.8296 14.98330884 38041,6950.19,96.107,573.793,570.318,0.0
55775.0,STARLINK-5809,PAYLOAD,2023-11-03 11:36:43,14.98336131,0.0002366,70.0017,225.7058,271.2872,88.8016,-0.00014554,-1.829e-05,0.0,0 STARLINK-5809,1 55775U 23028AL  23307.48383315 -.00001829  00000-0 -14554-3 0  9998,2 55775  70.0017 225.7058 0002366 271.2872  88.8016 14.98336131 38136,6950.174,96.107,573.683,570.395,0.0
55775.0,STARLINK-5809,PAYLOAD,2023-11-04 03:38:03,14.98331957,0.0002577,70.001,224.023,267.1848,92.9016,-2.0788e-05,-3.41e-06,0.0,0 STARLINK-5809,1 55775U 23028AL  23308.15143237 -.00000341  00000-0 -20788-4 0  9995,2 55775  70.0010 224.0230 0002577 267.1848  92.9016 14.98331957 38232,6950.187,96.107,573.843,570.261,0.0
